{"type": "FeatureCollection", "features": [{"type": "Feature", "geometry": {"type": "LineString", "coordinates": [[-122.456963371535, 37.785963786834], [-122.456813220016, 37.783928911752]]}, "properties": {"corridor": "Jordan Ave", "limits": "California St  -  Euclid Ave"}}, {"type": "Feature", "geometry": {"type": "LineString", "coordinates": [[-122.445309434953, 37.76188044273], [-122.446384044119, 37.761816426278]]}, "properties": {"corridor": "17th St", "limits": "Roosevelt Way  -  Monument Way"}}, {"type": "Feature", "geometry": {"type": "LineString", "coordinates": [[-122.437798747067, 37.774991947847], [-122.437867037098, 37.775064840939], [-122.43787748778163, 37.775115518885336]]}, "properties": {"corridor": "Divisadero St", "limits": "Hayes St  -  Grove St"}}, {"type": "Feature", "geometry": {"type": "LineString", "coordinates": [[-122.443461440976, 37.769496998081], [-122.445105981882, 37.769284228758]]}, "properties": {"corridor": "Waller St", "limits": "Central Ave  -  Masonic Ave"}}, {"type": "Feature", "geometry": {"type": "LineString", "coordinates": [[-122.453902454747, 37.771053837798], [-122.45384823088884, 37.77075975849646]]}, "properties": {"corridor": "Stanyan St", "limits": "Oak St  -  Page St"}}, {"type": "Feature", "geometry": {"type": "LineString", "coordinates": [[-122.45373978317254, 37.77017159989339], [-122.453726227208, 37.770098080068]]}, "properties": {"corridor": "Stanyan St", "limits": "Oak St  -  Page St"}}, {"type": "Feature", "geometry": {"type": "LineString", "coordinates": [[-122.445344990017, 37.770210174776], [-122.44563386803554, 37.770173344009635]]}, "properties": {"corridor": "Haight St", "limits": "Masonic Ave  -  Ashbury St"}}, {"type": "Feature", "geometry": {"type": "LineString", "coordinates": [[-122.44686159961437, 37.77001681325259], [-122.446933819119, 37.770007605561]]}, "properties": {"corridor": "Haight St", "limits": "Masonic Ave  -  Ashbury St"}}, {"type": "Feature", "geometry": {"type": "LineString", "coordinates": [[-122.446073647839, 37.76418782243], [-122.446101110688, 37.764142416271], [-122.4465047055, 37.763708381483]]}, "properties": {"corridor": "Ashbury St", "limits": "Clifford Ter  -  Downey St"}}, {"type": "Feature", "geometry": {"type": "LineString", "coordinates": [[-122.430433918182, 37.772108258339], [-122.43057812538261, 37.77208991116135]]}, "properties": {"corridor": "Haight St", "limits": "Fillmore St  -  Steiner St"}}, {"type": "Feature", "geometry": {"type": "LineString", "coordinates": [[-122.450216975604, 37.769588945007], [-122.45029917638966, 37.769578461569]]}, "properties": {"corridor": "Haight St", "limits": "Cole St  -  Cole St"}}, {"type": "Feature", "geometry": {"type": "LineString", "coordinates": [[-122.45062797953233, 37.769536527816996], [-122.450710180318, 37.769526044379]]}, "properties": {"corridor": "Haight St", "limits": "Cole St  -  Cole St"}}, {"type": "Feature", "geometry": {"type": "LineString", "coordinates": [[-122.443831200101, 37.78187164139], [-122.44443147262, 37.782569696589]]}, "properties": {"corridor": "Lyon St", "limits": "O'Farrell St  -  Geary Blvd"}}, {"type": "Feature", "geometry": {"type": "LineString", "coordinates": [[-122.436884629513, 37.778937753497], [-122.436978518307, 37.779403924695]]}, "properties": {"corridor": "Scott St", "limits": "Golden Gate Ave  -  Elm St"}}, {"type": "Feature", "geometry": {"type": "LineString", "coordinates": [[-122.432872634498, 37.7841425636068], [-122.432914248247, 37.78435505664]]}, "properties": {"corridor": "Fillmore St", "limits": "O'Farrell St  -  Geary Blvd"}}, {"type": "Feature", "geometry": {"type": "LineString", "coordinates": [[-122.452055220447, 37.770312752544], [-122.453593183677, 37.770117077191], [-122.453726227208, 37.770098080068]]}, "properties": {"corridor": "Page St", "limits": "Shrader St  -  Stanyan St"}}, {"type": "Feature", "geometry": {"type": "LineString", "coordinates": [[-122.447620106869, 37.785083635203], [-122.447578550118, 37.784998355221], [-122.447549635945, 37.784906799064], [-122.447149436228, 37.783030677643], [-122.447173034237, 37.782710075648], [-122.447225623017, 37.782575775436], [-122.447301513476, 37.782391642084]]}, "properties": {"corridor": "Masonic Ave", "limits": "Euclid Ave  -  Geary Blvd"}}, {"type": "Feature", "geometry": {"type": "LineString", "coordinates": [[-122.431025470892, 37.765867986364], [-122.431230731606, 37.765788289326], [-122.43128540572991, 37.76574563853731]]}, "properties": {"corridor": "Market St", "limits": "Sanchez St  -  16th St"}}, {"type": "Feature", "geometry": {"type": "LineString", "coordinates": [[-122.43168490743189, 37.765433990879316], [-122.43174197910359, 37.76538946978532]]}, "properties": {"corridor": "Market St", "limits": "Sanchez St  -  16th St"}}, {"type": "Feature", "geometry": {"type": "LineString", "coordinates": [[-122.43259805417925, 37.76472165337534], [-122.432922797531, 37.764468324029], [-122.433074470809, 37.764195713209]]}, "properties": {"corridor": "Market St", "limits": "Sanchez St  -  16th St"}}, {"type": "Feature", "geometry": {"type": "LineString", "coordinates": [[-122.44553527769, 37.771141933725], [-122.447122700625, 37.770934640933]]}, "properties": {"corridor": "Page St", "limits": "Masonic Ave  -  Ashbury St"}}, {"type": "Feature", "geometry": {"type": "LineString", "coordinates": [[-122.428948566763, 37.767504459571], [-122.429053687195, 37.767311144355], [-122.4292849414483, 37.76712826815796]]}, "properties": {"corridor": "Market St", "limits": "Church St  -  15th St"}}, {"type": "Feature", "geometry": {"type": "LineString", "coordinates": [[-122.4303811180629, 37.766261410110175], [-122.430591175744, 37.766095296193], [-122.430824395339, 37.766013730949]]}, "properties": {"corridor": "Market St", "limits": "Church St  -  15th St"}}, {"type": "Feature", "geometry": {"type": "LineString", "coordinates": [[-122.437234931654, 37.772203712438], [-122.43728486425925, 37.77225973299302]]}, "properties": {"corridor": "Divisadero St", "limits": "Page St  -  Oak St"}}, {"type": "Feature", "geometry": {"type": "LineString", "coordinates": [[-122.4374282534282, 37.77291708933059], [-122.437455216273, 37.77304998018], [-122.437422939693, 37.77313349266]]}, "properties": {"corridor": "Divisadero St", "limits": "Page St  -  Oak St"}}, {"type": "Feature", "geometry": {"type": "LineString", "coordinates": [[-122.432328981537, 37.781428371173], [-122.43235765875069, 37.781570104093]]}, "properties": {"corridor": "Fillmore St", "limits": "Eddy St  -  Ellis St"}}, {"type": "Feature", "geometry": {"type": "LineString", "coordinates": [[-122.429053785763, 37.768674599598], [-122.428968772429, 37.767729170383]]}, "properties": {"corridor": "Church St", "limits": "Reservoir St  -  14th St"}}, {"type": "Feature", "geometry": {"type": "LineString", "coordinates": [[-122.44972865791667, 37.78209024939041], [-122.449988236955, 37.782057031823], [-122.450092302229, 37.782116603421]]}, "properties": {"corridor": "Geary Blvd", "limits": "Wood St  -  Collins St"}}, {"type": "Feature", "geometry": {"type": "LineString", "coordinates": [[-122.437342368028, 37.762354747515], [-122.437298719291, 37.761895474571]]}, "properties": {"corridor": "Diamond St", "limits": "17th St  -  Market St"}}, {"type": "Feature", "geometry": {"type": "LineString", "coordinates": [[-122.433074470809, 37.764195713209], [-122.433258979665, 37.763988567966], [-122.43356119821074, 37.763748754839796]]}, "properties": {"corridor": "Market St", "limits": "16th St  -  17th St"}}, {"type": "Feature", "geometry": {"type": "LineString", "coordinates": [[-122.43448685143105, 37.763018744359], [-122.435051091352, 37.76265275122], [-122.435187962327, 37.762670707774]]}, "properties": {"corridor": "Market St", "limits": "16th St  -  17th St"}}, {"type": "Feature", "geometry": {"type": "LineString", "coordinates": [[-122.430424415289, 37.780715572792], [-122.432140389659, 37.780496260511]]}, "properties": {"corridor": "Turk St", "limits": "Webster St  -  Fillmore St"}}, {"type": "Feature", "geometry": {"type": "LineString", "coordinates": [[-122.441348538798, 37.784106550315], [-122.442989104409, 37.783897367787]]}, "properties": {"corridor": "Post St", "limits": "Broderick St  -  Baker St"}}, {"type": "Feature", "geometry": {"type": "LineString", "coordinates": [[-122.437798747067, 37.774991947847], [-122.437769250472, 37.775079294668], [-122.43778079734984, 37.77513663419258]]}, "properties": {"corridor": "Divisadero St", "limits": "Hayes St  -  Grove St"}}, {"type": "Feature", "geometry": {"type": "LineString", "coordinates": [[-122.456038895899, 37.763994844524], [-122.45624923450534, 37.763934792611664]]}, "properties": {"corridor": "Parnassus Ave", "limits": "Medical Center Way  -  Hillway Ave"}}, {"type": "Feature", "geometry": {"type": "LineString", "coordinates": [[-122.45659979884921, 37.76383470609111], [-122.456669911718, 37.763814688787]]}, "properties": {"corridor": "Parnassus Ave", "limits": "Medical Center Way  -  Hillway Ave"}}, {"type": "Feature", "geometry": {"type": "LineString", "coordinates": [[-122.453352288297, 37.768246025288], [-122.45332344236746, 37.76810154373031]]}, "properties": {"corridor": "Stanyan St", "limits": "Waller St  -  Beulah St"}}, {"type": "Feature", "geometry": {"type": "LineString", "coordinates": [[-122.43948038104, 37.783308488002], [-122.439450452905, 37.783398293238], [-122.43950599482797, 37.783675208144224]]}, "properties": {"corridor": "Divisadero St", "limits": "Geary Blvd  -  Post St"}}, {"type": "Feature", "geometry": {"type": "LineString", "coordinates": [[-122.4395949840201, 37.78411888082387], [-122.439619935426, 37.784243280842], [-122.439684678466, 37.784318673891]]}, "properties": {"corridor": "Divisadero St", "limits": "Geary Blvd  -  Post St"}}, {"type": "Feature", "geometry": {"type": "LineString", "coordinates": [[-122.427396397474, 37.782056939414], [-122.429040601287, 37.781847439487]]}, "properties": {"corridor": "Eddy St", "limits": "Laguna St  -  Buchanan St"}}, {"type": "Feature", "geometry": {"type": "LineString", "coordinates": [[-122.450135686515, 37.784480901991], [-122.450133889529, 37.784293194309], [-122.450202667415, 37.784150690243], [-122.450376694346, 37.783929736369], [-122.4504088663, 37.783747288981], [-122.450092302229, 37.782116603421]]}, "properties": {"corridor": "Collins St", "limits": "Euclid Ave  -  Geary Blvd"}}, {"type": "Feature", "geometry": {"type": "LineString", "coordinates": [[-122.436978518307, 37.779403924695], [-122.437071864741, 37.779867395935]]}, "properties": {"corridor": "Scott St", "limits": "Elm St  -  Turk St"}}, {"type": "Feature", "geometry": {"type": "LineString", "coordinates": [[-122.443865815495, 37.767535852074], [-122.443356055108, 37.768944234449]]}, "properties": {"corridor": "Buena Vista Ave West", "limits": "Frederick St  -  Central Ave"}}, {"type": "Feature", "geometry": {"type": "LineString", "coordinates": [[-122.43780562735562, 37.77477587451756], [-122.437832240729, 37.774903523387], [-122.437798747067, 37.774991947847]]}, "properties": {"corridor": "Divisadero St", "limits": "Fell St  -  Hayes St"}}, {"type": "Feature", "geometry": {"type": "LineString", "coordinates": [[-122.44143546908333, 37.78223570794833], [-122.441671638484, 37.782233946706]]}, "properties": {"corridor": "O'Farrell St", "limits": "Broderick St  -  Saint Joseph's Ave"}}, {"type": "Feature", "geometry": {"type": "LineString", "coordinates": [[-122.450710180318, 37.769526044379], [-122.45078240199224, 37.76951683308187]]}, "properties": {"corridor": "Haight St", "limits": "Cole St  -  Shrader St"}}, {"type": "Feature", "geometry": {"type": "LineString", "coordinates": [[-122.434562099056, 37.784151863773], [-122.434658733905, 37.784079760038], [-122.43489806579532, 37.784032085361346]]}, "properties": {"corridor": "Geary Blvd", "limits": "Steiner St  -  Scott St"}}, {"type": "Feature", "geometry": {"type": "LineString", "coordinates": [[-122.43749907460911, 37.783683465907025], [-122.437720603307, 37.783656168514], [-122.437847943562, 37.78371763821]]}, "properties": {"corridor": "Geary Blvd", "limits": "Steiner St  -  Scott St"}}, {"type": "Feature", "geometry": {"type": "LineString", "coordinates": [[-122.442785606231, 37.761043120546], [-122.443091897268, 37.760991763253], [-122.443738694278, 37.760858045764]]}, "properties": {"corridor": "Merritt St", "limits": "Market St  -  Danvers St"}}, {"type": "Feature", "geometry": {"type": "LineString", "coordinates": [[-122.445922005478, 37.769179275019], [-122.446744894227, 37.76907435727]]}, "properties": {"corridor": "Waller St", "limits": "Delmar St  -  Ashbury St"}}, {"type": "Feature", "geometry": {"type": "LineString", "coordinates": [[-122.45302826486044, 37.76923018476587], [-122.453536875128, 37.769165225265]]}, "properties": {"corridor": "Haight St", "limits": "Shrader St  -  Stanyan St"}}, {"type": "Feature", "geometry": {"type": "LineString", "coordinates": [[-122.446384044119, 37.761816426278], [-122.446783403442, 37.761781413695]]}, "properties": {"corridor": "17th St", "limits": "Monument Way  -  Clayton St"}}, {"type": "Feature", "geometry": {"type": "LineString", "coordinates": [[-122.453170387508, 37.781717428504], [-122.45323441267729, 37.78175784009088]]}, "properties": {"corridor": "Geary Blvd", "limits": "Spruce St  -  Parker Ave"}}, {"type": "Feature", "geometry": {"type": "LineString", "coordinates": [[-122.45411739388187, 37.781646763077106], [-122.454175993557, 37.78159882148]]}, "properties": {"corridor": "Geary Blvd", "limits": "Spruce St  -  Parker Ave"}}, {"type": "Feature", "geometry": {"type": "LineString", "coordinates": [[-122.43450564482453, 37.78386683811433], [-122.434562099056, 37.784151863773]]}, "properties": {"corridor": "Steiner St", "limits": "O'Farrell St  -  Geary Blvd"}}, {"type": "Feature", "geometry": {"type": "LineString", "coordinates": [[-122.458858661406, 37.781257061325], [-122.459039858278, 37.781189713337], [-122.459874043119, 37.781146583861], [-122.459999657963, 37.781213477912]]}, "properties": {"corridor": "Geary Blvd", "limits": "Arguello Blvd  -  02nd Ave"}}, {"type": "Feature", "geometry": {"type": "LineString", "coordinates": [[-122.455523985114, 37.78143114023], [-122.455632655845, 37.781489812071], [-122.45580668695784, 37.78147943619474]]}, "properties": {"corridor": "Geary Blvd", "limits": "Commonwealth Ave  -  Stanyan St"}}, {"type": "Feature", "geometry": {"type": "LineString", "coordinates": [[-122.4562444820795, 37.78143529035127], [-122.456295739929, 37.781381282491]]}, "properties": {"corridor": "Geary Blvd", "limits": "Commonwealth Ave  -  Stanyan St"}}, {"type": "Feature", "geometry": {"type": "LineString", "coordinates": [[-122.456669911718, 37.763814688787], [-122.4573629017427, 37.763615625142236]]}, "properties": {"corridor": "Parnassus Ave", "limits": "Hillway Ave  -  03rd Ave"}}, {"type": "Feature", "geometry": {"type": "LineString", "coordinates": [[-122.45770939675505, 37.76351609331986], [-122.45777869575751, 37.76349618695538]]}, "properties": {"corridor": "Parnassus Ave", "limits": "Hillway Ave  -  03rd Ave"}}, {"type": "Feature", "geometry": {"type": "LineString", "coordinates": [[-122.45861108540022, 37.76326012016758], [-122.45874982526125, 37.76322080463222]]}, "properties": {"corridor": "Parnassus Ave", "limits": "Hillway Ave  -  03rd Ave"}}, {"type": "Feature", "geometry": {"type": "LineString", "coordinates": [[-122.45902730498332, 37.7631421735615], [-122.459790374219, 37.762925938117]]}, "properties": {"corridor": "Parnassus Ave", "limits": "Hillway Ave  -  03rd Ave"}}, {"type": "Feature", "geometry": {"type": "LineString", "coordinates": [[-122.446933819119, 37.770007605561], [-122.44691928643499, 37.76993581723092]]}, "properties": {"corridor": "Ashbury St", "limits": "Haight St  -  Waller St"}}, {"type": "Feature", "geometry": {"type": "LineString", "coordinates": [[-122.446832090331, 37.76950508725046], [-122.446744894227, 37.76907435727]]}, "properties": {"corridor": "Ashbury St", "limits": "Haight St  -  Waller St"}}, {"type": "Feature", "geometry": {"type": "LineString", "coordinates": [[-122.437234931654, 37.772203712438], [-122.4372081316361, 37.772273717354906]]}, "properties": {"corridor": "Divisadero St", "limits": "Page St  -  Oak St"}}, {"type": "Feature", "geometry": {"type": "LineString", "coordinates": [[-122.43236371658914, 37.78236857530271], [-122.431984549497, 37.782415925677]]}, "properties": {"corridor": "Ellis St", "limits": "Fillmore St  -  End: 1550-1599 Block"}}, {"type": "Feature", "geometry": {"type": "LineString", "coordinates": [[-122.437422939693, 37.77313349266], [-122.437389647911, 37.773229220106], [-122.437551529725, 37.773987756733], [-122.437610623863, 37.774061646375]]}, "properties": {"corridor": "Divisadero St", "limits": "Oak St  -  Fell St"}}, {"type": "Feature", "geometry": {"type": "LineString", "coordinates": [[-122.450736767306, 37.762341704865], [-122.452096689882, 37.762166750282]]}, "properties": {"corridor": "Rivoli St", "limits": "Shrader St  -  Stanyan St"}}, {"type": "Feature", "geometry": {"type": "LineString", "coordinates": [[-122.429040601287, 37.781847439487], [-122.430609199213, 37.781645584393]]}, "properties": {"corridor": "Eddy St", "limits": "Buchanan St  -  Webster St"}}, {"type": "Feature", "geometry": {"type": "LineString", "coordinates": [[-122.432328981537, 37.781428371173], [-122.43397315752, 37.781218802442]]}, "properties": {"corridor": "Eddy St", "limits": "Fillmore St  -  Steiner St"}}, {"type": "Feature", "geometry": {"type": "LineString", "coordinates": [[-122.446952816754, 37.760170129356], [-122.447157396532, 37.759660680945], [-122.447394862389, 37.759372842618]]}, "properties": {"corridor": "Twin Peaks Blvd", "limits": "Villa Ter  -  Graystone Ter"}}, {"type": "Feature", "geometry": {"type": "LineString", "coordinates": [[-122.443517046914, 37.76050921], [-122.443548345892, 37.76043002054], [-122.44378582789, 37.760275724278], [-122.444572010247, 37.759759887019], [-122.444629428679, 37.759708374199]]}, "properties": {"corridor": "Market St", "limits": "Danvers St  -  18th St"}}, {"type": "Feature", "geometry": {"type": "LineString", "coordinates": [[-122.44443147262, 37.782569696589], [-122.444953725744, 37.782503662306], [-122.445713300768, 37.782409382682], [-122.445820511205, 37.782488032096]]}, "properties": {"corridor": "Geary Blvd", "limits": "Lyon St  -  Presidio Ave"}}, {"type": "Feature", "geometry": {"type": "LineString", "coordinates": [[-122.445922005478, 37.769179275019], [-122.445544776181, 37.767323162185]]}, "properties": {"corridor": "Delmar St", "limits": "Waller St  -  Frederick St"}}, {"type": "Feature", "geometry": {"type": "LineString", "coordinates": [[-122.435187962327, 37.762670707774], [-122.435140825783, 37.762413604864], [-122.43512373612569, 37.76222765530362]]}, "properties": {"corridor": "Castro St", "limits": "Market St  -  18th St"}}, {"type": "Feature", "geometry": {"type": "LineString", "coordinates": [[-122.4350075364047, 37.76096330654348], [-122.435000701127, 37.760888933087]]}, "properties": {"corridor": "Castro St", "limits": "Market St  -  18th St"}}, {"type": "Feature", "geometry": {"type": "LineString", "coordinates": [[-122.430824395339, 37.766013730949], [-122.430954744696, 37.765993628549], [-122.431014633025, 37.765950220125], [-122.431025470892, 37.765867986364]]}, "properties": {"corridor": "Market St", "limits": "15th St  -  Sanchez St"}}, {"type": "Feature", "geometry": {"type": "LineString", "coordinates": [[-122.458637161229, 37.767200000362], [-122.458755094518, 37.767197172184], [-122.458825258069, 37.767174292968], [-122.459069140453, 37.767062526944], [-122.459855447776, 37.766453748313], [-122.459931488046, 37.766348840554]]}, "properties": {"corridor": "Kezar Dr", "limits": "Martin Luther King Jr Dr  -  Lincoln Way"}}, {"type": "Feature", "geometry": {"type": "LineString", "coordinates": [[-122.434562099056, 37.784151863773], [-122.434658906495, 37.784194218617], [-122.4367224150082, 37.783932730825796]]}, "properties": {"corridor": "Geary Blvd", "limits": "Steiner St  -  Scott St"}}, {"type": "Feature", "geometry": {"type": "LineString", "coordinates": [[-122.43715608253996, 37.783877776477766], [-122.437751685562, 37.783802301665], [-122.437847943562, 37.78371763821]]}, "properties": {"corridor": "Geary Blvd", "limits": "Steiner St  -  Scott St"}}, {"type": "Feature", "geometry": {"type": "LineString", "coordinates": [[-122.43485441823712, 37.76089770722087], [-122.435000701127, 37.760888933087]]}, "properties": {"corridor": "18th St", "limits": "Hartford St  -  Castro St"}}, {"type": "Feature", "geometry": {"type": "LineString", "coordinates": [[-122.454682648021, 37.774755484817], [-122.454642052774, 37.774646437957], [-122.454285117083, 37.772895177828]]}, "properties": {"corridor": "Stanyan St", "limits": "Fulton St  -  Hayes St"}}, {"type": "Feature", "geometry": {"type": "LineString", "coordinates": [[-122.437071864741, 37.779867395935], [-122.437260058298, 37.780801770693]]}, "properties": {"corridor": "Scott St", "limits": "Turk St  -  Eddy St"}}, {"type": "Feature", "geometry": {"type": "LineString", "coordinates": [[-122.431025470892, 37.765867986364], [-122.431124557748, 37.765673219841], [-122.43151856848108, 37.76536112442437]]}, "properties": {"corridor": "Market St", "limits": "Sanchez St  -  16th St"}}, {"type": "Feature", "geometry": {"type": "LineString", "coordinates": [[-122.43180122176892, 37.76513723510305], [-122.43191428308405, 37.76504767937451]]}, "properties": {"corridor": "Market St", "limits": "Sanchez St  -  16th St"}}, {"type": "Feature", "geometry": {"type": "LineString", "coordinates": [[-122.43270571229, 37.76442078927479], [-122.432764829839, 37.764373962337], [-122.433074470809, 37.764195713209]]}, "properties": {"corridor": "Market St", "limits": "Sanchez St  -  16th St"}}, {"type": "Feature", "geometry": {"type": "LineString", "coordinates": [[-122.4381218797326, 37.776804139076596], [-122.438177047864, 37.7768558892]]}, "properties": {"corridor": "Divisadero St", "limits": "Grove St  -  Fulton St"}}, {"type": "Feature", "geometry": {"type": "LineString", "coordinates": [[-122.430824395339, 37.766013730949], [-122.430839699776, 37.765928259934], [-122.430912083354, 37.765875794476], [-122.431025470892, 37.765867986364]]}, "properties": {"corridor": "Market St", "limits": "15th St  -  Sanchez St"}}, {"type": "Feature", "geometry": {"type": "LineString", "coordinates": [[-122.435424515259, 37.780077637996], [-122.437071864741, 37.779867395935]]}, "properties": {"corridor": "Turk St", "limits": "Pierce St  -  Scott St"}}, {"type": "Feature", "geometry": {"type": "LineString", "coordinates": [[-122.445309433326, 37.760480799962], [-122.446343474129, 37.760410698007]]}, "properties": {"corridor": "Deming St", "limits": "Uranus Ter  -  Clayton St"}}, {"type": "Feature", "geometry": {"type": "LineString", "coordinates": [[-122.446283674527, 37.774871102729], [-122.446091727153, 37.773935371748]]}, "properties": {"corridor": "Masonic Ave", "limits": "Grove St  -  Hayes St"}}, {"type": "Feature", "geometry": {"type": "LineString", "coordinates": [[-122.447301513476, 37.782391642084], [-122.447539741536, 37.782270401825], [-122.447887457606, 37.782286025606], [-122.44801531954705, 37.782270198062804]]}, "properties": {"corridor": "Geary Blvd", "limits": "Masonic Ave  -  Wood St"}}, {"type": "Feature", "geometry": {"type": "LineString", "coordinates": [[-122.44897497264085, 37.78216000845448], [-122.449047323854, 37.78217743771]]}, "properties": {"corridor": "Geary Blvd", "limits": "Masonic Ave  -  Wood St"}}, {"type": "Feature", "geometry": {"type": "LineString", "coordinates": [[-122.458998400743, 37.783188664916], [-122.460137198557, 37.783136488403]]}, "properties": {"corridor": "Clement St", "limits": "Arguello Blvd  -  02nd Ave"}}, {"type": "Feature", "geometry": {"type": "LineString", "coordinates": [[-122.446033026077, 37.78350919879], [-122.445820511205, 37.782488032096]]}, "properties": {"corridor": "Presidio Ave", "limits": "Post St  -  Geary Blvd"}}, {"type": "Feature", "geometry": {"type": "LineString", "coordinates": [[-122.433074470809, 37.764195713209], [-122.433411270709, 37.764068728938], [-122.43364266315312, 37.76388135309857]]}, "properties": {"corridor": "Market St", "limits": "16th St  -  17th St"}}, {"type": "Feature", "geometry": {"type": "LineString", "coordinates": [[-122.4346114643884, 37.763104099170725], [-122.435151904373, 37.762743011133], [-122.435187962327, 37.762670707774]]}, "properties": {"corridor": "Market St", "limits": "16th St  -  17th St"}}, {"type": "Feature", "geometry": {"type": "LineString", "coordinates": [[-122.448578816473, 37.76979785124], [-122.44865498359164, 37.769788138222786]]}, "properties": {"corridor": "Haight St", "limits": "Clayton St  -  Belvedere St"}}, {"type": "Feature", "geometry": {"type": "LineString", "coordinates": [[-122.437847943562, 37.78371763821], [-122.43798489711287, 37.78376229638411]]}, "properties": {"corridor": "Geary Blvd", "limits": "Scott St  -  Divisadero St"}}, {"type": "Feature", "geometry": {"type": "LineString", "coordinates": [[-122.43900560657617, 37.78344097645026], [-122.439351930672, 37.783394878193], [-122.43948038104, 37.783308488002]]}, "properties": {"corridor": "Geary Blvd", "limits": "Scott St  -  Divisadero St"}}, {"type": "Feature", "geometry": {"type": "LineString", "coordinates": [[-122.44364908623, 37.770426370917], [-122.44372282117726, 37.770416971084785]]}, "properties": {"corridor": "Haight St", "limits": "Central Ave  -  Masonic Ave"}}, {"type": "Feature", "geometry": {"type": "LineString", "coordinates": [[-122.44512378517523, 37.77023837427265], [-122.445344990017, 37.770210174776]]}, "properties": {"corridor": "Haight St", "limits": "Central Ave  -  Masonic Ave"}}, {"type": "Feature", "geometry": {"type": "LineString", "coordinates": [[-122.449079404319, 37.78231437377], [-122.44915472595734, 37.78230549757405]]}, "properties": {"corridor": "Geary Blvd", "limits": "Wood St  -  Collins St"}}, {"type": "Feature", "geometry": {"type": "LineString", "coordinates": [[-122.44990794234086, 37.78221673561459], [-122.450025633236, 37.78220286646], [-122.450092302229, 37.782116603421]]}, "properties": {"corridor": "Geary Blvd", "limits": "Wood St  -  Collins St"}}, {"type": "Feature", "geometry": {"type": "LineString", "coordinates": [[-122.428948566763, 37.767504459571], [-122.429181964081, 37.767413367661], [-122.42933158946492, 37.76729528541653]]}, "properties": {"corridor": "Market St", "limits": "Church St  -  15th St"}}, {"type": "Feature", "geometry": {"type": "LineString", "coordinates": [[-122.43065907349016, 37.766247653730744], [-122.43074894679, 37.766176726989], [-122.430824395339, 37.766013730949]]}, "properties": {"corridor": "Market St", "limits": "Church St  -  15th St"}}, {"type": "Feature", "geometry": {"type": "LineString", "coordinates": [[-122.451119860207, 37.781984115978], [-122.45117011687952, 37.781932227588435]]}, "properties": {"corridor": "Geary Blvd", "limits": "Blake St  -  Cook St"}}, {"type": "Feature", "geometry": {"type": "LineString", "coordinates": [[-122.45194355294105, 37.781804789221454], [-122.452040288745, 37.781792917227], [-122.452143124058, 37.78185329184]]}, "properties": {"corridor": "Geary Blvd", "limits": "Blake St  -  Cook St"}}, {"type": "Feature", "geometry": {"type": "LineString", "coordinates": [[-122.456295739929, 37.781381282491], [-122.456367376717, 37.78130044583], [-122.45663364482742, 37.7812885219235]]}, "properties": {"corridor": "Geary Blvd", "limits": "Stanyan St  -  Palm Ave"}}, {"type": "Feature", "geometry": {"type": "LineString", "coordinates": [[-122.446433636735, 37.76100671902], [-122.446393718443, 37.760906766612], [-122.446343474129, 37.760410698007]]}, "properties": {"corridor": "Clayton St", "limits": "Twin Peaks Blvd  -  Deming St"}}, {"type": "Feature", "geometry": {"type": "LineString", "coordinates": [[-122.44719918824, 37.767110558401], [-122.4465047055, 37.763708381483]]}, "properties": {"corridor": "Downey St", "limits": "Frederick St  -  Ashbury St"}}, {"type": "Feature", "geometry": {"type": "LineString", "coordinates": [[-122.450092302229, 37.782116603421], [-122.45014010942182, 37.7820622424152]]}, "properties": {"corridor": "Geary Blvd", "limits": "Collins St  -  Blake St"}}, {"type": "Feature", "geometry": {"type": "LineString", "coordinates": [[-122.45105727104622, 37.78194773956269], [-122.451119860207, 37.781984115978]]}, "properties": {"corridor": "Geary Blvd", "limits": "Collins St  -  Blake St"}}, {"type": "Feature", "geometry": {"type": "LineString", "coordinates": [[-122.434161774241, 37.782150910402], [-122.434350395688, 37.783083017553]]}, "properties": {"corridor": "Steiner St", "limits": "Ellis St  -  O'Farrell St"}}, {"type": "Feature", "geometry": {"type": "LineString", "coordinates": [[-122.431037778981, 37.76599633002], [-122.431025470892, 37.765867986364]]}, "properties": {"corridor": "Sanchez St", "limits": "15th St  -  Market St"}}, {"type": "Feature", "geometry": {"type": "LineString", "coordinates": [[-122.458858661406, 37.781257061325], [-122.459048708608, 37.781325440231], [-122.459880426527, 37.781288622657], [-122.459999657963, 37.781213477912]]}, "properties": {"corridor": "Geary Blvd", "limits": "Arguello Blvd  -  02nd Ave"}}, {"type": "Feature", "geometry": {"type": "LineString", "coordinates": [[-122.452241778019, 37.771229827222], [-122.453781998124, 37.771021947428], [-122.453902454747, 37.771053837798]]}, "properties": {"corridor": "Oak St", "limits": "Shrader St  -  Stanyan St"}}, {"type": "Feature", "geometry": {"type": "LineString", "coordinates": [[-122.437422939693, 37.77313349266], [-122.43746905644475, 37.77319209751729]]}, "properties": {"corridor": "Divisadero St", "limits": "Oak St  -  Fell St"}}, {"type": "Feature", "geometry": {"type": "LineString", "coordinates": [[-122.43763391861806, 37.77399080402554], [-122.437610623863, 37.774061646375]]}, "properties": {"corridor": "Divisadero St", "limits": "Oak St  -  Fell St"}}, {"type": "Feature", "geometry": {"type": "LineString", "coordinates": [[-122.448957993601, 37.771668739564], [-122.448767913922, 37.770730883771]]}, "properties": {"corridor": "Clayton St", "limits": "Oak St  -  Page St"}}, {"type": "Feature", "geometry": {"type": "LineString", "coordinates": [[-122.430609199213, 37.781645584393], [-122.430715200361, 37.781739888562], [-122.430858231675, 37.782446877522], [-122.430797880555, 37.782569888528]]}, "properties": {"corridor": "Webster St", "limits": "Eddy St  -  Ellis St"}}, {"type": "Feature", "geometry": {"type": "LineString", "coordinates": [[-122.43948038104, 37.783308488002], [-122.439632560463, 37.783359592497], [-122.441158201359, 37.783163669751]]}, "properties": {"corridor": "Geary Blvd", "limits": "Divisadero St  -  Broderick St"}}, {"type": "Feature", "geometry": {"type": "LineString", "coordinates": [[-122.438709125448, 37.771056494683], [-122.440357705342, 37.770847434419]]}, "properties": {"corridor": "Haight St", "limits": "Broderick St  -  Baker St"}}, {"type": "Feature", "geometry": {"type": "LineString", "coordinates": [[-122.435424515259, 37.780077637996], [-122.43561626498, 37.781009345955]]}, "properties": {"corridor": "Pierce St", "limits": "Turk St  -  Eddy St"}}, {"type": "Feature", "geometry": {"type": "LineString", "coordinates": [[-122.446433636735, 37.76100671902], [-122.446579328962, 37.760901555064], [-122.446866213426, 37.760421568166], [-122.446952816754, 37.760170129356]]}, "properties": {"corridor": "Twin Peaks Blvd", "limits": "Clayton St  -  Villa Ter"}}, {"type": "Feature", "geometry": {"type": "LineString", "coordinates": [[-122.428802102088, 37.772315846598], [-122.42887627554681, 37.772306410768046]]}, "properties": {"corridor": "Haight St", "limits": "Webster St  -  Fillmore St"}}, {"type": "Feature", "geometry": {"type": "LineString", "coordinates": [[-122.43028557126436, 37.772127129998914], [-122.430433918182, 37.772108258339]]}, "properties": {"corridor": "Haight St", "limits": "Webster St  -  Fillmore St"}}, {"type": "Feature", "geometry": {"type": "LineString", "coordinates": [[-122.446343474129, 37.760410698007], [-122.446398859467, 37.760013056423], [-122.446413346689, 37.75985518733], [-122.446454239793, 37.759046652588], [-122.446395243705, 37.758855513741]]}, "properties": {"corridor": "Clayton St", "limits": "Deming St  -  Pemberton Pl"}}, {"type": "Feature", "geometry": {"type": "LineString", "coordinates": [[-122.4465047055, 37.763708381483], [-122.44659362427, 37.763606750078], [-122.446747598383, 37.763342997091], [-122.446994342635, 37.762722234963]]}, "properties": {"corridor": "Ashbury St", "limits": "Downey St  -  Clayton St"}}, {"type": "Feature", "geometry": {"type": "LineString", "coordinates": [[-122.447301513476, 37.782391642084], [-122.44735554358836, 37.78252738603155]]}, "properties": {"corridor": "Geary Blvd", "limits": "Masonic Ave  -  Emerson St"}}, {"type": "Feature", "geometry": {"type": "LineString", "coordinates": [[-122.445902365973, 37.772995405825], [-122.445716665627, 37.772080394208]]}, "properties": {"corridor": "Masonic Ave", "limits": "Fell St  -  Oak St"}}, {"type": "Feature", "geometry": {"type": "LineString", "coordinates": [[-122.429127985498, 37.769456128163], [-122.429905643212, 37.76940792165]]}, "properties": {"corridor": "Duboce Ave", "limits": "Church St  -  Fillmore St"}}, {"type": "Feature", "geometry": {"type": "LineString", "coordinates": [[-122.448959434506, 37.760851404087], [-122.448816175811, 37.760141490582]]}, "properties": {"corridor": "Cole St", "limits": "Carmel St  -  End: 1500-1599 Block"}}, {"type": "Feature", "geometry": {"type": "LineString", "coordinates": [[-122.443374429728, 37.760376327932], [-122.443408010803, 37.760276478369], [-122.443119268924, 37.759831425895], [-122.443003983954, 37.759632259104], [-122.442991395088, 37.759566658278]]}, "properties": {"corridor": "Danvers St", "limits": "18th St  -  Caselli Ave"}}, {"type": "Feature", "geometry": {"type": "LineString", "coordinates": [[-122.440357705342, 37.770847434419], [-122.441997762484, 37.770637635539]]}, "properties": {"corridor": "Haight St", "limits": "Baker St  -  Lyon St"}}, {"type": "Feature", "geometry": {"type": "LineString", "coordinates": [[-122.427819099714, 37.775786575859], [-122.429459885543, 37.775577376259]]}, "properties": {"corridor": "Linden St", "limits": "Buchanan St  -  End: 600-699 Block"}}, {"type": "Feature", "geometry": {"type": "LineString", "coordinates": [[-122.437610623863, 37.774061646375], [-122.437581110494, 37.774151859387], [-122.4375919888514, 37.77420559660383]]}, "properties": {"corridor": "Divisadero St", "limits": "Fell St  -  Hayes St"}}, {"type": "Feature", "geometry": {"type": "LineString", "coordinates": [[-122.445105981882, 37.769284228758], [-122.444731540167, 37.767425876114]]}, "properties": {"corridor": "Masonic Ave", "limits": "Waller St  -  Frederick St"}}, {"type": "Feature", "geometry": {"type": "LineString", "coordinates": [[-122.442765193648, 37.769661283093], [-122.443018951201, 37.769824871783], [-122.443155045874, 37.769972195849], [-122.443264592966, 37.770180230304], [-122.443311688785, 37.770469538418]]}, "properties": {"corridor": "Buena Vista Ave West", "limits": "Waller St  -  Haight St"}}, {"type": "Feature", "geometry": {"type": "LineString", "coordinates": [[-122.446744894227, 37.76907435727], [-122.447567740038, 37.768969439018]]}, "properties": {"corridor": "Waller St", "limits": "Ashbury St  -  Downey St"}}, {"type": "Feature", "geometry": {"type": "LineString", "coordinates": [[-122.437989848202, 37.775925405585], [-122.43804334316917, 37.775978840677006]]}, "properties": {"corridor": "Divisadero St", "limits": "Grove St  -  Fulton St"}}, {"type": "Feature", "geometry": {"type": "LineString", "coordinates": [[-122.43820975545313, 37.776787718574475], [-122.438177047864, 37.7768558892]]}, "properties": {"corridor": "Divisadero St", "limits": "Grove St  -  Fulton St"}}, {"type": "Feature", "geometry": {"type": "LineString", "coordinates": [[-122.454018233506, 37.771616239174], [-122.453979522254, 37.771428395344]]}, "properties": {"corridor": "Stanyan St", "limits": "Ggp Access Road  -  Fell St"}}, {"type": "Feature", "geometry": {"type": "LineString", "coordinates": [[-122.45522152480328, 37.78141565155058], [-122.45528074961, 37.78145866084]]}, "properties": {"corridor": "Geary Blvd", "limits": "Parker Ave  -  Beaumont Ave"}}, {"type": "Feature", "geometry": {"type": "LineString", "coordinates": [[-122.45846290215, 37.775618427704], [-122.459588500206, 37.775566459723]]}, "properties": {"corridor": "Cabrillo St", "limits": "Arguello Blvd  -  02nd Ave"}}, {"type": "Feature", "geometry": {"type": "LineString", "coordinates": [[-122.427016756932, 37.780193030833], [-122.43023323633, 37.779782794313]]}, "properties": {"corridor": "Golden Gate Ave", "limits": "Laguna St  -  Webster St"}}, {"type": "Feature", "geometry": {"type": "LineString", "coordinates": [[-122.434062387332, 37.76255082463], [-122.434939552916, 37.762502312868], [-122.435187962327, 37.762670707774]]}, "properties": {"corridor": "17th St", "limits": "Hartford St  -  Market St"}}, {"type": "Feature", "geometry": {"type": "LineString", "coordinates": [[-122.445820511205, 37.782488032096], [-122.445938826938, 37.782570909027], [-122.447301513476, 37.782391642084]]}, "properties": {"corridor": "Geary Blvd", "limits": "Presidio Ave  -  Masonic Ave"}}, {"type": "Feature", "geometry": {"type": "LineString", "coordinates": [[-122.443865815495, 37.767535852074], [-122.444731540167, 37.767425876114]]}, "properties": {"corridor": "Frederick St", "limits": "Buena Vista West Ave  -  Masonic Ave"}}, {"type": "Feature", "geometry": {"type": "LineString", "coordinates": [[-122.448063773939, 37.782482601533], [-122.44835679062872, 37.782443737468164]]}, "properties": {"corridor": "Geary Blvd", "limits": "Emerson St  -  Wood St"}}, {"type": "Feature", "geometry": {"type": "LineString", "coordinates": [[-122.445544776181, 37.767323162185], [-122.446369258862, 37.767220256546]]}, "properties": {"corridor": "Frederick St", "limits": "Delmar St  -  Ashbury St"}}, {"type": "Feature", "geometry": {"type": "LineString", "coordinates": [[-122.430609199213, 37.781645584393], [-122.432328981537, 37.781428371173]]}, "properties": {"corridor": "Eddy St", "limits": "Webster St  -  Fillmore St"}}, {"type": "Feature", "geometry": {"type": "LineString", "coordinates": [[-122.451119860207, 37.781984115978], [-122.45118249826048, 37.782021009502984]]}, "properties": {"corridor": "Geary Blvd", "limits": "Blake St  -  Cook St"}}, {"type": "Feature", "geometry": {"type": "LineString", "coordinates": [[-122.45204035247733, 37.781949483984775], [-122.452061246566, 37.781946858682], [-122.452143124058, 37.78185329184]]}, "properties": {"corridor": "Geary Blvd", "limits": "Blake St  -  Cook St"}}, {"type": "Feature", "geometry": {"type": "LineString", "coordinates": [[-122.435000701127, 37.760888933087], [-122.43497397025845, 37.760598067223]]}, "properties": {"corridor": "Castro St", "limits": "18th St  -  19th St"}}, {"type": "Feature", "geometry": {"type": "LineString", "coordinates": [[-122.43490714308709, 37.759870902563], [-122.43485368135, 37.759289170835]]}, "properties": {"corridor": "Castro St", "limits": "18th St  -  19th St"}}, {"type": "Feature", "geometry": {"type": "LineString", "coordinates": [[-122.438177047864, 37.7768558892], [-122.43814754518277, 37.77692591149863]]}, "properties": {"corridor": "Divisadero St", "limits": "Fulton St  -  McAllister St"}}, {"type": "Feature", "geometry": {"type": "LineString", "coordinates": [[-122.437847943562, 37.78371763821], [-122.438019672055, 37.784530918539]]}, "properties": {"corridor": "Scott St", "limits": "Geary Blvd  -  Post St"}}, {"type": "Feature", "geometry": {"type": "LineString", "coordinates": [[-122.444008025851, 37.761281923123], [-122.443738694278, 37.760858045764]]}, "properties": {"corridor": "Danvers St", "limits": "Corbett Ave  -  Merritt St"}}, {"type": "Feature", "geometry": {"type": "LineString", "coordinates": [[-122.43384998206618, 37.78314680092026], [-122.434350395688, 37.783083017553]]}, "properties": {"corridor": "O'Farrell St", "limits": "Fillmore St  -  Steiner St"}}, {"type": "Feature", "geometry": {"type": "LineString", "coordinates": [[-122.444458023322, 37.782774664863], [-122.444946380569, 37.782717292446], [-122.445753568429, 37.782615735412], [-122.445820511205, 37.782488032096]]}, "properties": {"corridor": "Geary Blvd", "limits": "Lyon St  -  Presidio Ave"}}, {"type": "Feature", "geometry": {"type": "LineString", "coordinates": [[-122.453726227208, 37.770098080068], [-122.45369709611876, 37.76995456394447]]}, "properties": {"corridor": "Stanyan St", "limits": "Page St  -  Haight St"}}, {"type": "Feature", "geometry": {"type": "LineString", "coordinates": [[-122.442793099742, 37.782885336443], [-122.442894233603, 37.782808826183], [-122.44291349555004, 37.78280582983596]]}, "properties": {"corridor": "Geary Blvd", "limits": "Baker St  -  Lyon St"}}, {"type": "Feature", "geometry": {"type": "LineString", "coordinates": [[-122.44435918799762, 37.78258094102933], [-122.44443147262, 37.782569696589]]}, "properties": {"corridor": "Geary Blvd", "limits": "Baker St  -  Lyon St"}}, {"type": "Feature", "geometry": {"type": "LineString", "coordinates": [[-122.446933819119, 37.770007605561], [-122.44707686236717, 37.76998936605482]]}, "properties": {"corridor": "Haight St", "limits": "Ashbury St  -  Clayton St"}}, {"type": "Feature", "geometry": {"type": "LineString", "coordinates": [[-122.44850729484891, 37.76980697099309], [-122.448578816473, 37.76979785124]]}, "properties": {"corridor": "Haight St", "limits": "Ashbury St  -  Clayton St"}}, {"type": "Feature", "geometry": {"type": "LineString", "coordinates": [[-122.43968445665017, 37.78408397493213], [-122.439712711239, 37.784230676109], [-122.439684678466, 37.784318673891]]}, "properties": {"corridor": "Divisadero St", "limits": "Garden St  -  Post St"}}, {"type": "Feature", "geometry": {"type": "LineString", "coordinates": [[-122.430989254381, 37.783507754267], [-122.431072731833, 37.783603584166], [-122.431240186154, 37.784333608785], [-122.4312049461, 37.784568241392]]}, "properties": {"corridor": "Webster St", "limits": "O'Farrell St  -  Geary Blvd"}}, {"type": "Feature", "geometry": {"type": "LineString", "coordinates": [[-122.456629211101, 37.781439142038], [-122.4567049515776, 37.78143592342283]]}, "properties": {"corridor": "Geary Blvd", "limits": "Jordan Ave  -  Palm Ave"}}, {"type": "Feature", "geometry": {"type": "LineString", "coordinates": [[-122.45767799521187, 37.781366707678316], [-122.45773304353, 37.781314586071]]}, "properties": {"corridor": "Geary Blvd", "limits": "Jordan Ave  -  Palm Ave"}}, {"type": "Feature", "geometry": {"type": "LineString", "coordinates": [[-122.437707163118, 37.77883238048], [-122.437894527257, 37.779764947852]]}, "properties": {"corridor": "Seymour St", "limits": "Golden Gate Ave  -  Turk St"}}, {"type": "Feature", "geometry": {"type": "LineString", "coordinates": [[-122.447301513476, 37.782391642084], [-122.447310709435, 37.782183081865], [-122.447502176264, 37.781694109513], [-122.447539059057, 37.781510294369], [-122.44746662207, 37.781160226051], [-122.447517982987, 37.781069511093]]}, "properties": {"corridor": "Masonic Ave", "limits": "Geary Blvd  -  Anza St"}}, {"type": "Feature", "geometry": {"type": "LineString", "coordinates": [[-122.45773304353, 37.781314586071], [-122.457822891295, 37.781376322984], [-122.4578602890488, 37.78137494739694]]}, "properties": {"corridor": "Geary Blvd", "limits": "Palm Ave  -  Arguello Blvd"}}, {"type": "Feature", "geometry": {"type": "LineString", "coordinates": [[-122.45866514888456, 37.78134534254999], [-122.458730412738, 37.781342941975], [-122.458858661406, 37.781257061325]]}, "properties": {"corridor": "Geary Blvd", "limits": "Palm Ave  -  Arguello Blvd"}}, {"type": "Feature", "geometry": {"type": "LineString", "coordinates": [[-122.449120214336, 37.761648125591], [-122.45057996957, 37.761561139148]]}, "properties": {"corridor": "17th St", "limits": "Cole St  -  Shrader St"}}, {"type": "Feature", "geometry": {"type": "LineString", "coordinates": [[-122.444731540167, 37.767425876114], [-122.445544776181, 37.767323162185]]}, "properties": {"corridor": "Frederick St", "limits": "Masonic Ave  -  Delmar St"}}, {"type": "Feature", "geometry": {"type": "LineString", "coordinates": [[-122.42720275555, 37.781117127347], [-122.427323616279, 37.781110073022], [-122.430424415289, 37.780715572792]]}, "properties": {"corridor": "Turk St", "limits": "Laguna St  -  Webster St"}}, {"type": "Feature", "geometry": {"type": "LineString", "coordinates": [[-122.447122700625, 37.770934640933], [-122.446933819119, 37.770007605561]]}, "properties": {"corridor": "Ashbury St", "limits": "Page St  -  Haight St"}}, {"type": "Feature", "geometry": {"type": "LineString", "coordinates": [[-122.437071864741, 37.779867395935], [-122.437894527257, 37.779764947852]]}, "properties": {"corridor": "Turk St", "limits": "Scott St  -  Seymour St"}}, {"type": "Feature", "geometry": {"type": "LineString", "coordinates": [[-122.449958131814, 37.765800029245], [-122.44994363809607, 37.76572821569954]]}, "properties": {"corridor": "Cole St", "limits": "Carl St  -  Parnassus Ave"}}, {"type": "Feature", "geometry": {"type": "LineString", "coordinates": [[-122.44684646986, 37.777669108933], [-122.446659911877, 37.776741636204]]}, "properties": {"corridor": "Masonic Ave", "limits": "Golden Gate Ave  -  McAllister St"}}, {"type": "Feature", "geometry": {"type": "LineString", "coordinates": [[-122.450092302229, 37.782116603421], [-122.45015569917358, 37.78215228463735]]}, "properties": {"corridor": "Geary Blvd", "limits": "Collins St  -  Blake St"}}, {"type": "Feature", "geometry": {"type": "LineString", "coordinates": [[-122.45107331419722, 37.78204002474972], [-122.451119860207, 37.781984115978]]}, "properties": {"corridor": "Geary Blvd", "limits": "Collins St  -  Blake St"}}, {"type": "Feature", "geometry": {"type": "LineString", "coordinates": [[-122.43004726535, 37.778850928395], [-122.429986995724, 37.778978991738], [-122.430129613653, 37.779683995949], [-122.43023323633, 37.779782794313]]}, "properties": {"corridor": "Webster St", "limits": "McAllister St  -  Golden Gate Ave"}}, {"type": "Feature", "geometry": {"type": "LineString", "coordinates": [[-122.441671638484, 37.782233946706], [-122.44180742386332, 37.78230099889744]]}, "properties": {"corridor": "Saint Joseph's Ave", "limits": "O'Farrell St  -  Geary Blvd"}}, {"type": "Feature", "geometry": {"type": "LineString", "coordinates": [[-122.4425843513027, 37.78260104471711], [-122.442692468632, 37.782642601388], [-122.442793099742, 37.782885336443]]}, "properties": {"corridor": "Saint Joseph's Ave", "limits": "O'Farrell St  -  Geary Blvd"}}, {"type": "Feature", "geometry": {"type": "LineString", "coordinates": [[-122.429849199654, 37.777919295958], [-122.429793647481, 37.778038208818], [-122.429935699783, 37.778749118307], [-122.43004726535, 37.778850928395]]}, "properties": {"corridor": "Webster St", "limits": "Fulton St  -  McAllister St"}}, {"type": "Feature", "geometry": {"type": "LineString", "coordinates": [[-122.45792369977974, 37.78123809112116], [-122.45799638519185, 37.78123464065721]]}, "properties": {"corridor": "Geary Blvd", "limits": "Palm Ave  -  Arguello Blvd"}}, {"type": "Feature", "geometry": {"type": "LineString", "coordinates": [[-122.45828712684026, 37.78122083880142], [-122.458707855012, 37.781200866329], [-122.458858661406, 37.781257061325]]}, "properties": {"corridor": "Geary Blvd", "limits": "Palm Ave  -  Arguello Blvd"}}, {"type": "Feature", "geometry": {"type": "LineString", "coordinates": [[-122.435187962327, 37.762670707774], [-122.435321554369, 37.762690898677], [-122.435803703003, 37.762499499273], [-122.435972800963, 37.762448793974], [-122.436369245103, 37.762430299875], [-122.436437451147, 37.762408585681]]}, "properties": {"corridor": "17th St", "limits": "Market St  -  17th St"}}, {"type": "Feature", "geometry": {"type": "LineString", "coordinates": [[-122.45623142898789, 37.78134377389294], [-122.456295739929, 37.781381282491]]}, "properties": {"corridor": "Geary Blvd", "limits": "Commonwealth Ave  -  Stanyan St"}}, {"type": "Feature", "geometry": {"type": "LineString", "coordinates": [[-122.453423283232, 37.76859956374069], [-122.453352288297, 37.768246025288]]}, "properties": {"corridor": "Stanyan St", "limits": "Haight St  -  Waller St"}}, {"type": "Feature", "geometry": {"type": "LineString", "coordinates": [[-122.447312420448, 37.77187774215], [-122.447122700625, 37.770934640933]]}, "properties": {"corridor": "Ashbury St", "limits": "Oak St  -  Page St"}}, {"type": "Feature", "geometry": {"type": "LineString", "coordinates": [[-122.433178634868, 37.765060651583], [-122.43317169472027, 37.76498830368572]]}, "properties": {"corridor": "Noe St", "limits": "Beaver St  -  Market St"}}, {"type": "Feature", "geometry": {"type": "LineString", "coordinates": [[-122.43308975557323, 37.76426676783498], [-122.433074470809, 37.764195713209]]}, "properties": {"corridor": "Noe St", "limits": "Beaver St  -  Market St"}}, {"type": "Feature", "geometry": {"type": "LineString", "coordinates": [[-122.455865115359, 37.786104707944], [-122.455711326815, 37.783978891051]]}, "properties": {"corridor": "Commonwealth Ave", "limits": "California St  -  Euclid Ave"}}, {"type": "Feature", "geometry": {"type": "LineString", "coordinates": [[-122.44553527769, 37.771141933725], [-122.44541817758355, 37.770568543602536]]}, "properties": {"corridor": "Masonic Ave", "limits": "Page St  -  Haight St"}}, {"type": "Feature", "geometry": {"type": "LineString", "coordinates": [[-122.44535962753031, 37.7702818485413], [-122.445344990017, 37.770210174776]]}, "properties": {"corridor": "Masonic Ave", "limits": "Page St  -  Haight St"}}, {"type": "Feature", "geometry": {"type": "LineString", "coordinates": [[-122.451357654172, 37.775175120967], [-122.452810237136, 37.77499531853]]}, "properties": {"corridor": "Fulton St", "limits": "Cole St  -  Parker Ave"}}, {"type": "Feature", "geometry": {"type": "LineString", "coordinates": [[-122.445344990017, 37.770210174776], [-122.445174210489, 37.769339442369], [-122.445105981882, 37.769284228758]]}, "properties": {"corridor": "Masonic Ave", "limits": "Haight St  -  Waller St"}}, {"type": "Feature", "geometry": {"type": "LineString", "coordinates": [[-122.445962649402, 37.765216185612], [-122.445911320346, 37.76495639874], [-122.445838172454, 37.764577147577], [-122.446073647839, 37.76418782243]]}, "properties": {"corridor": "Ashbury St", "limits": "Piedmont St  -  Clifford Ter"}}, {"type": "Feature", "geometry": {"type": "LineString", "coordinates": [[-122.452143124058, 37.78185329184], [-122.452252326715, 37.781913051098], [-122.45227292473474, 37.78191036187001]]}, "properties": {"corridor": "Geary Blvd", "limits": "Cook St  -  Spruce St"}}, {"type": "Feature", "geometry": {"type": "LineString", "coordinates": [[-122.4527770470592, 37.78184454487001], [-122.45309908421, 37.781802500473], [-122.453170387508, 37.781717428504]]}, "properties": {"corridor": "Geary Blvd", "limits": "Cook St  -  Spruce St"}}, {"type": "Feature", "geometry": {"type": "LineString", "coordinates": [[-122.43023323633, 37.779782794313], [-122.430321057233, 37.779880198773], [-122.430464550611, 37.780589073102], [-122.430424415289, 37.780715572792]]}, "properties": {"corridor": "Webster St", "limits": "Golden Gate Ave  -  Turk St"}}, {"type": "Feature", "geometry": {"type": "LineString", "coordinates": [[-122.433595938287, 37.7793545855], [-122.433784545541, 37.780286694375]]}, "properties": {"corridor": "Steiner St", "limits": "Golden Gate Ave  -  Turk St"}}, {"type": "Feature", "geometry": {"type": "LineString", "coordinates": [[-122.441997762484, 37.770637635539], [-122.443311688785, 37.770469538418]]}, "properties": {"corridor": "Haight St", "limits": "Lyon St  -  Buena Vista West Ave"}}, {"type": "Feature", "geometry": {"type": "LineString", "coordinates": [[-122.428955924219, 37.781428834941], [-122.429040601287, 37.781847439487]]}, "properties": {"corridor": "Buchanan St", "limits": "Start: 1250-1299 Block  -  Eddy St"}}, {"type": "Feature", "geometry": {"type": "LineString", "coordinates": [[-122.447122700625, 37.770934640933], [-122.448767913922, 37.770730883771]]}, "properties": {"corridor": "Page St", "limits": "Ashbury St  -  Clayton St"}}, {"type": "Feature", "geometry": {"type": "LineString", "coordinates": [[-122.426828556374, 37.779257971013], [-122.43004726535, 37.778850928395]]}, "properties": {"corridor": "McAllister St", "limits": "Laguna St  -  Webster St"}}, {"type": "Feature", "geometry": {"type": "LineString", "coordinates": [[-122.427490665262, 37.782522998637], [-122.429063131668, 37.782322639818], [-122.429112140238, 37.782297073991]]}, "properties": {"corridor": "Willow St", "limits": "Laguna St  -  Buchanan St"}}, {"type": "Feature", "geometry": {"type": "LineString", "coordinates": [[-122.437894527257, 37.779764947852], [-122.438740183561, 37.779659630005]]}, "properties": {"corridor": "Turk St", "limits": "Seymour St  -  Divisadero St"}}, {"type": "Feature", "geometry": {"type": "LineString", "coordinates": [[-122.446369258862, 37.767220256546], [-122.445962649402, 37.765216185612]]}, "properties": {"corridor": "Ashbury St", "limits": "Frederick St  -  Piedmont St"}}, {"type": "Feature", "geometry": {"type": "LineString", "coordinates": [[-122.440984700554, 37.761077984409], [-122.441070544593, 37.761118489716], [-122.442462115445, 37.761110506203], [-122.442785606231, 37.761043120546]]}, "properties": {"corridor": "Market St", "limits": "Hattie St  -  Merritt St"}}, {"type": "Feature", "geometry": {"type": "LineString", "coordinates": [[-122.443356055108, 37.768944234449], [-122.443167148469, 37.769036642578], [-122.442410978856, 37.769493342774], [-122.442384439989, 37.769599921906], [-122.442506052602, 37.769685990266], [-122.442646848448, 37.769690367057], [-122.442765193648, 37.769661283093]]}, "properties": {"corridor": "Buena Vista Ave West", "limits": "Central Ave  -  Waller St"}}, {"type": "Feature", "geometry": {"type": "LineString", "coordinates": [[-122.437045612272, 37.771267424403], [-122.438709125448, 37.771056494683]]}, "properties": {"corridor": "Haight St", "limits": "Divisadero St  -  Broderick St"}}, {"type": "Feature", "geometry": {"type": "LineString", "coordinates": [[-122.430797880555, 37.782569888528], [-122.430905777691, 37.782676106583], [-122.431049721806, 37.783397598449], [-122.430989254381, 37.783507754267]]}, "properties": {"corridor": "Webster St", "limits": "Ellis St  -  O'Farrell St"}}, {"type": "Feature", "geometry": {"type": "LineString", "coordinates": [[-122.458946891225, 37.7662556056], [-122.459064323547, 37.766208950688], [-122.460016419948, 37.766165787477]]}, "properties": {"corridor": "Lincoln Way", "limits": "02nd Ave  -  03rd Ave"}}, {"type": "Feature", "geometry": {"type": "LineString", "coordinates": [[-122.452143124058, 37.78185329184], [-122.4521940151203, 37.78180246435678]]}, "properties": {"corridor": "Geary Blvd", "limits": "Cook St  -  Spruce St"}}, {"type": "Feature", "geometry": {"type": "LineString", "coordinates": [[-122.45310721001326, 37.78168304918709], [-122.453170387508, 37.781717428504]]}, "properties": {"corridor": "Geary Blvd", "limits": "Cook St  -  Spruce St"}}, {"type": "Feature", "geometry": {"type": "LineString", "coordinates": [[-122.450600180642, 37.771460142936], [-122.450407505427, 37.770519318385]]}, "properties": {"corridor": "Cole St", "limits": "Oak St  -  Page St"}}, {"type": "Feature", "geometry": {"type": "LineString", "coordinates": [[-122.441158201359, 37.783163669751], [-122.442702053885, 37.782972357268], [-122.442793099742, 37.782885336443]]}, "properties": {"corridor": "Geary Blvd", "limits": "Broderick St  -  Baker St"}}, {"type": "Feature", "geometry": {"type": "LineString", "coordinates": [[-122.444350393577, 37.760513965232], [-122.444745797614, 37.760133262082], [-122.445634127288, 37.759706515909], [-122.445863885306, 37.759483527834]]}, "properties": {"corridor": "Corbett Ave", "limits": "Mars St  -  19th St"}}, {"type": "Feature", "geometry": {"type": "LineString", "coordinates": [[-122.426641498175, 37.778328564245], [-122.429849199654, 37.777919295958]]}, "properties": {"corridor": "Fulton St", "limits": "Laguna St  -  Webster St"}}, {"type": "Feature", "geometry": {"type": "LineString", "coordinates": [[-122.441564133792, 37.760488611731], [-122.443374429728, 37.760376327932]]}, "properties": {"corridor": "18th St", "limits": "Clover St  -  Danvers St"}}, {"type": "Feature", "geometry": {"type": "LineString", "coordinates": [[-122.443517046914, 37.76050921], [-122.443609677758, 37.760499735109], [-122.443853201236, 37.76034151324], [-122.444639924509, 37.759837025316], [-122.444777785101, 37.759721306361], [-122.444861580065, 37.759609392477], [-122.444928794734, 37.759466469206], [-122.444947652103, 37.759407335733]]}, "properties": {"corridor": "Market St", "limits": "Danvers St  -  19th St"}}, {"type": "Feature", "geometry": {"type": "LineString", "coordinates": [[-122.43561626498, 37.781009345955], [-122.437260058298, 37.780801770693]]}, "properties": {"corridor": "Eddy St", "limits": "Pierce St  -  Scott St"}}, {"type": "Feature", "geometry": {"type": "LineString", "coordinates": [[-122.446369258862, 37.767220256546], [-122.44719918824, 37.767110558401]]}, "properties": {"corridor": "Frederick St", "limits": "Ashbury St  -  Downey St"}}, {"type": "Feature", "geometry": {"type": "LineString", "coordinates": [[-122.453170387508, 37.781717428504], [-122.453244752492, 37.781638562968], [-122.45358775890132, 37.78159687873543]]}, "properties": {"corridor": "Geary Blvd", "limits": "Spruce St  -  Parker Ave"}}, {"type": "Feature", "geometry": {"type": "LineString", "coordinates": [[-122.4540383706974, 37.78154211763944], [-122.454055406868, 37.7815400473], [-122.454175993557, 37.78159882148]]}, "properties": {"corridor": "Geary Blvd", "limits": "Spruce St  -  Parker Ave"}}, {"type": "Feature", "geometry": {"type": "LineString", "coordinates": [[-122.452623844584, 37.773106133372], [-122.454285117083, 37.772895177828]]}, "properties": {"corridor": "Hayes St", "limits": "Shrader St  -  Stanyan St"}}, {"type": "Feature", "geometry": {"type": "LineString", "coordinates": [[-122.43948038104, 37.783308488002], [-122.439544517087, 37.783382626383], [-122.43960624189795, 37.783686577339736]]}, "properties": {"corridor": "Divisadero St", "limits": "Geary Blvd  -  Garden St"}}, {"type": "Feature", "geometry": {"type": "LineString", "coordinates": [[-122.443359054239, 37.761996605514], [-122.444195855752, 37.761946770403]]}, "properties": {"corridor": "17th St", "limits": "Temple St  -  Mars St"}}, {"type": "Feature", "geometry": {"type": "LineString", "coordinates": [[-122.443461440976, 37.769496998081], [-122.44364908623, 37.770426370917]]}, "properties": {"corridor": "Central Ave", "limits": "Waller St  -  Haight St"}}, {"type": "Feature", "geometry": {"type": "LineString", "coordinates": [[-122.442785606231, 37.761043120546], [-122.442916673726, 37.760957751317], [-122.443374353802, 37.760652628357], [-122.443490079098, 37.760577440138], [-122.443517046914, 37.76050921]]}, "properties": {"corridor": "Market St", "limits": "Merritt St  -  Danvers St"}}, {"type": "Feature", "geometry": {"type": "LineString", "coordinates": [[-122.43948038104, 37.783308488002], [-122.439604107068, 37.783222601183], [-122.43996372313657, 37.783177122925586]]}, "properties": {"corridor": "Geary Blvd", "limits": "Divisadero St  -  Baker St"}}, {"type": "Feature", "geometry": {"type": "LineString", "coordinates": [[-122.44229076435478, 37.78288283746734], [-122.44265084398, 37.782837300587], [-122.442793099742, 37.782885336443]]}, "properties": {"corridor": "Geary Blvd", "limits": "Divisadero St  -  Baker St"}}, {"type": "Feature", "geometry": {"type": "LineString", "coordinates": [[-122.438177047864, 37.7768558892], [-122.43822985977235, 37.77691051290142]]}, "properties": {"corridor": "Divisadero St", "limits": "Fulton St  -  McAllister St"}}, {"type": "Feature", "geometry": {"type": "LineString", "coordinates": [[-122.43837467118132, 37.777575626058386], [-122.438400797889, 37.7777056421], [-122.438365501671, 37.77779418913]]}, "properties": {"corridor": "Divisadero St", "limits": "Fulton St  -  McAllister St"}}, {"type": "Feature", "geometry": {"type": "LineString", "coordinates": [[-122.439301399698, 37.768165525146], [-122.440137464108, 37.767756871637], [-122.440604288622, 37.766954511553], [-122.441938258398, 37.765952844734], [-122.442009457656, 37.765907093486], [-122.442166610311, 37.765887824967], [-122.442360970157, 37.765884622324], [-122.442575244813, 37.765928284628]]}, "properties": {"corridor": "Buena Vista Ave East", "limits": "Park Hill Ave  -  Upper Ter"}}, {"type": "Feature", "geometry": {"type": "LineString", "coordinates": [[-122.446744894227, 37.76907435727], [-122.446369258862, 37.767220256546]]}, "properties": {"corridor": "Ashbury St", "limits": "Waller St  -  Frederick St"}}, {"type": "Feature", "geometry": {"type": "LineString", "coordinates": [[-122.432140389659, 37.780496260511], [-122.433784545541, 37.780286694375]]}, "properties": {"corridor": "Turk St", "limits": "Fillmore St  -  Steiner St"}}, {"type": "Feature", "geometry": {"type": "LineString", "coordinates": [[-122.450407505427, 37.770519318385], [-122.45031956858561, 37.770089915287464]]}, "properties": {"corridor": "Cole St", "limits": "Page St  -  Haight St"}}, {"type": "Feature", "geometry": {"type": "LineString", "coordinates": [[-122.443738694278, 37.760858045764], [-122.443517046914, 37.76050921]]}, "properties": {"corridor": "Danvers St", "limits": "Merritt St  -  Market St"}}, {"type": "Feature", "geometry": {"type": "LineString", "coordinates": [[-122.444871600426, 37.76051047961], [-122.445309433326, 37.760480799962]]}, "properties": {"corridor": "Deming St", "limits": "Start: 01-43 Block  -  Uranus Ter"}}, {"type": "Feature", "geometry": {"type": "LineString", "coordinates": [[-122.453979522254, 37.771428395344], [-122.453902454747, 37.771053837798]]}, "properties": {"corridor": "Stanyan St", "limits": "Fell St  -  Oak St"}}, {"type": "Feature", "geometry": {"type": "LineString", "coordinates": [[-122.443694603915, 37.766954286028], [-122.443763511884, 37.767066559005], [-122.443865815495, 37.767535852074]]}, "properties": {"corridor": "Buena Vista Ave West", "limits": "Java St  -  Frederick St"}}, {"type": "Feature", "geometry": {"type": "LineString", "coordinates": [[-122.454175993557, 37.78159882148], [-122.454282627591, 37.781654741117], [-122.45430709514291, 37.78165161597667]]}, "properties": {"corridor": "Geary Blvd", "limits": "Parker Ave  -  Beaumont Ave"}}, {"type": "Feature", "geometry": {"type": "LineString", "coordinates": [[-122.445105981882, 37.769284228758], [-122.445922005478, 37.769179275019]]}, "properties": {"corridor": "Waller St", "limits": "Masonic Ave  -  Delmar St"}}, {"type": "Feature", "geometry": {"type": "LineString", "coordinates": [[-122.452241778019, 37.771229827222], [-122.452055220447, 37.770312752544]]}, "properties": {"corridor": "Shrader St", "limits": "Oak St  -  Page St"}}, {"type": "Feature", "geometry": {"type": "LineString", "coordinates": [[-122.450407505427, 37.770519318385], [-122.452055220447, 37.770312752544]]}, "properties": {"corridor": "Page St", "limits": "Cole St  -  Shrader St"}}, {"type": "Feature", "geometry": {"type": "LineString", "coordinates": [[-122.435187962327, 37.762670707774], [-122.435313808574, 37.762625703217], [-122.435372249272, 37.762589828677], [-122.436183619156, 37.762195789705], [-122.436241805873, 37.76213762558]]}, "properties": {"corridor": "Market St", "limits": "17th St  -  Collingwood St"}}, {"type": "Feature", "geometry": {"type": "LineString", "coordinates": [[-122.458946891225, 37.7662556056], [-122.459074915136, 37.766277237818], [-122.459522359935, 37.766256695757], [-122.459767931976, 37.766323233339], [-122.459931488046, 37.766348840554]]}, "properties": {"corridor": "Lincoln Way", "limits": "02nd Ave  -  03rd Ave"}}, {"type": "Feature", "geometry": {"type": "LineString", "coordinates": [[-122.444195855752, 37.761946770403], [-122.445309434953, 37.76188044273]]}, "properties": {"corridor": "17th St", "limits": "Mars St  -  Roosevelt Way"}}, {"type": "Feature", "geometry": {"type": "LineString", "coordinates": [[-122.440984700554, 37.761077984409], [-122.441064758929, 37.761033731849], [-122.442447957576, 37.761025796346], [-122.442627645956, 37.760983670296], [-122.442824114727, 37.760884530155], [-122.443306191503, 37.760587351771], [-122.443409537343, 37.760520206489], [-122.443517046914, 37.76050921]]}, "properties": {"corridor": "Market St", "limits": "Hattie St  -  Danvers St"}}, {"type": "Feature", "geometry": {"type": "LineString", "coordinates": [[-122.440357705342, 37.770847434419], [-122.440262607893, 37.77072526182], [-122.439672606809, 37.770542989987], [-122.439460815246, 37.770405837249], [-122.439254292091, 37.770024930257]]}, "properties": {"corridor": "Buena Vista Ave East", "limits": "Baker St  -  Waller St"}}, {"type": "Feature", "geometry": {"type": "LineString", "coordinates": [[-122.458637161229, 37.767200000362], [-122.458705953751, 37.767141939874], [-122.458791110646, 37.7671141717], [-122.459023035117, 37.767007555135], [-122.459800878263, 37.766404090052], [-122.459931488046, 37.766348840554]]}, "properties": {"corridor": "Kezar Dr", "limits": "Martin Luther King Jr Dr  -  Lincoln Way"}}, {"type": "Feature", "geometry": {"type": "LineString", "coordinates": [[-122.443374429728, 37.760376327932], [-122.444375152901, 37.75974409731], [-122.444477828158, 37.759707486264], [-122.444629428679, 37.759708374199]]}, "properties": {"corridor": "18th St", "limits": "Danvers St  -  Market St"}}, {"type": "Feature", "geometry": {"type": "LineString", "coordinates": [[-122.445309434953, 37.76188044273], [-122.445356861238, 37.761742884082], [-122.445599269578, 37.761217086609], [-122.445347499856, 37.760812853077], [-122.445309433326, 37.760480799962]]}, "properties": {"corridor": "Uranus Ter", "limits": "17th St  -  Deming St"}}, {"type": "Feature", "geometry": {"type": "LineString", "coordinates": [[-122.442908034169, 37.762023463217], [-122.443359054239, 37.761996605514]]}, "properties": {"corridor": "17th St", "limits": "Corbin Pl  -  Temple St"}}, {"type": "Feature", "geometry": {"type": "LineString", "coordinates": [[-122.442765193648, 37.769661283093], [-122.442843258498, 37.76960508769], [-122.443078578576, 37.769565078088], [-122.443340134241, 37.769533238268], [-122.443461440976, 37.769496998081]]}, "properties": {"corridor": "Waller St", "limits": "Buena Vista West Ave  -  Central Ave"}}, {"type": "Feature", "geometry": {"type": "LineString", "coordinates": [[-122.43023323633, 37.779782794313], [-122.430174209865, 37.779901162938], [-122.430317662264, 37.780609842599], [-122.430424415289, 37.780715572792]]}, "properties": {"corridor": "Webster St", "limits": "Golden Gate Ave  -  Turk St"}}, {"type": "Feature", "geometry": {"type": "LineString", "coordinates": [[-122.443356055108, 37.768944234449], [-122.443461440976, 37.769496998081]]}, "properties": {"corridor": "Central Ave", "limits": "Buena Vista West Ave  -  Waller St"}}, {"type": "Feature", "geometry": {"type": "LineString", "coordinates": [[-122.448767913922, 37.770730883771], [-122.450407505427, 37.770519318385]]}, "properties": {"corridor": "Page St", "limits": "Clayton St  -  Cole St"}}, {"type": "Feature", "geometry": {"type": "LineString", "coordinates": [[-122.447567740038, 37.768969439018], [-122.448389686041, 37.768864629361]]}, "properties": {"corridor": "Waller St", "limits": "Downey St  -  Clayton St"}}]}